[Satellite]
VERSION=1.1
NAME=FLOCK 2E'-13
NICKNAME=FLOCK 2E'-13
TLE1=1 41761U 98067KH  17186.14114819  .00006615  00000-0  83143-4 0  9992
TLE2=2 41761  51.6386 300.2533 0006491 331.8193  28.2448 15.61037119 45713
